! Orbits computed with differential corrections
format  = 'OEF2.0'       ! file format
rectype = 'ML'           ! record type (1L/ML)
refsys  = ECLM J2000     ! default reference system
END_OF_HEADER
2015TF202_1
! Equinoctial elements: a, e*sin(LP), e*cos(LP), tan(i/2)*sin(LN), tan(i/2)*cos(LN), mean long.
 EQU   2.1721147886465806E+00  -0.282291228567499   0.297249679643931    0.009366591498171    0.062173277483365 346.4088356433466
 MJD     57306.322312947 TDT
! Non-grav parameters: model used, actual number in use, dimension
 LSP   0  0    6
! RMS    1.91616E-01   4.05821E-02   4.08403E-02   4.34476E-03   1.25393E-02   4.30149E+00
! EIG   3.52152E-07   5.82769E-07   7.07096E-05   5.26626E-04   4.63885E-02   2.09026E-01
! WEA   0.91389  -0.19182   0.11994   0.01247   0.03524  -0.33502
 COV   3.671679539542472E-02 -7.564990332475318E-03  4.304502699943352E-03
 COV   5.501155122120807E-04  1.559549434100480E-03 -7.431405186395338E-01
 COV   1.646905317407784E-03 -1.207037223803262E-03 -8.273209184459297E-05
 COV  -2.317795538041895E-04  1.705887126968368E-01  1.667930994041445E-03
 COV  -4.672864585757936E-05 -1.425059025876188E-04 -1.505696553113070E-01
 COV   1.887697842607800E-05  5.447389573676690E-05 -5.067864425904145E-03
 COV   1.572352758804419E-04 -1.381988898197534E-02  1.850283964613867E+01
 NOR   7.042036923298511E+09  1.983062039165664E+11 -5.373782682801814E+10
 NOR   2.855985081299422E+10 -1.038948722089300E+10 -1.982706868068331E+09
 NOR   5.745506534986302E+12 -1.538916994207231E+12  1.940004506360444E+11
 NOR  -1.204974389972528E+10 -5.748559508808241E+10  4.141611966327352E+11
 NOR  -1.209525617228691E+11  3.469765770564018E+10  1.539297605932385E+10
 NOR   2.447266415581991E+12 -1.111737479680328E+12 -1.785875308266313E+09
 NOR   5.062710631556387E+11  4.980807380390563E+07  5.751720777213863E+08
2015TF202_2
! Equinoctial elements: a, e*sin(LP), e*cos(LP), tan(i/2)*sin(LN), tan(i/2)*cos(LN), mean long.
 EQU   2.1566634276482057E+00  -0.280213292184556   0.297181077159688    0.009038891898530    0.061160705636054 347.8164992473266
 MJD     57310.347483702 TDT
! Non-grav parameters: model used, actual number in use, dimension
 LSP   0  0    6
! RMS    7.78036E-02   1.70798E-02   9.39507E-03   1.27279E-03   3.77978E-03   1.72991E+00
! EIG   1.44308E-07   2.28084E-07   1.38302E-05   1.04593E-04   8.81297E-03   8.53417E-02
! WEA   0.91095  -0.19893   0.09124   0.01394   0.04086  -0.34701
 COV   6.053396616476473E-03 -1.314025724560220E-03  5.890171910789956E-04
 COV   9.391291181364068E-05  2.756353627569125E-04 -1.308650955872848E-01
 COV   2.917210678998618E-04 -1.420164979564920E-04 -1.935862126521532E-05
 COV  -5.648026986320059E-05  2.943660824371297E-02  8.826736429925938E-05
 COV   6.891920847574829E-06  1.949024596028699E-05 -1.498278335893118E-02
 COV   1.620005203195739E-06  4.808212945452684E-06 -1.867046236176090E-03
 COV   1.428674435210441E-05 -5.426191686327035E-03  2.992598820747427E+00
 NOR   2.565318631449750E+10  8.732306176380040E+11 -2.497398637260052E+11
 NOR   2.837410363292719E+11 -1.332513793627580E+11 -8.782643668673965E+09
 NOR   3.377333107574617E+13 -9.289363609621689E+12  2.636641778642688E+12
 NOR  -8.231057931247423E+11 -3.403800806379284E+11  2.584937779628813E+12
 NOR  -1.396604152823615E+12  5.751730553272582E+11  9.356688968887500E+10
 NOR   1.548588451440573E+13 -7.969646509563143E+12 -2.530876422431635E+10
 NOR   4.116300459456772E+12  7.640622663296231E+09  3.430594439281379E+09
2015TF202_1=2015TF202_2
! Equinoctial elements: a, e*sin(LP), e*cos(LP), tan(i/2)*sin(LN), tan(i/2)*cos(LN), mean long.
 EQU   2.1558779349458552E+00  -0.278692414021299   0.294112323275235    0.009245941726174    0.061834555741436 347.4229945029236
 MJD     57308.334898325 TDT
! Non-grav parameters: model used, actual number in use, dimension
 LSP   0  0    6
! RMS    8.17167E-03   1.79414E-03   1.03227E-03   1.37345E-04   3.99072E-04   1.79725E-01
! EIG   1.23173E-07   1.94497E-07   8.34146E-06   6.26037E-05   8.85785E-04   8.96045E-03
! WEA   0.91134  -0.19935   0.09683   0.01417   0.04077  -0.34420
 COV   6.677625751032617E-05 -1.453620600074505E-05  6.917105084122222E-06
 COV   1.052781293013527E-06  3.031454669319178E-06 -1.433094157284942E-03
 COV   3.218922577824538E-06 -1.640815615537617E-06 -2.183210245899705E-07
 COV  -6.262684078075693E-07  3.211148409752443E-04  1.065575838881716E-06
 COV   8.102615580457916E-08  2.272282999684583E-07 -1.714974886221509E-04
 COV   1.886378341830671E-08  5.479218918575183E-08 -2.074225795651690E-05
 COV   1.592584165504380E-07 -5.932239714082196E-05  3.230090713351199E-02
 NOR   4.666702690092564E+10  1.409635460795086E+12 -4.018075611274572E+11
 NOR   3.849093578579471E+11 -1.756950853191013E+11 -1.415205998476785E+10
 NOR   4.642037516629931E+13 -1.283850746532686E+13  3.400289304210398E+12
 NOR  -1.011786552121667E+12 -4.667792981231742E+11  3.588238271207468E+12
 NOR  -1.816684413526625E+12  7.308816739433154E+11  1.290321837073967E+11
 NOR   2.136289578389438E+13 -1.084655119181098E+13 -3.257362215592949E+10
 NOR   5.535258776938646E+12  9.344607708639179E+09  4.693859385945017E+09
